NORAD_CAT_ID,OBJECT_NAME,OBJECT_TYPE,EPOCH,MEAN_MOTION,ECCENTRICITY,INCLINATION,RA_OF_ASC_NODE,ARG_OF_PERICENTER,MEAN_ANOMALY,BSTAR,MEAN_MOTION_DOT,MEAN_MOTION_DDOT,TLE_LINE0,TLE_LINE1,TLE_LINE2,SEMIMAJOR_AXIS,PERIOD,APOGEE,PERIGEE,DECAYED
55938.0,STARLINK-5909,PAYLOAD,2023-11-27 03:37:23,14.98314535,0.0002426,70.0007,226.1214,258.7348,101.3539,-0.00019991,-2.476e-05,0.0,0 STARLINK-5909,1 55938U 23037AA  23331.15096252 -.00002476  00000-0 -19991-3 0  9990,2 55938  70.0007 226.1214 0002426 258.7348 101.3539 14.98314535 39125,6950.241,96.108,573.792,570.42,0.0
55938.0,STARLINK-5909,PAYLOAD,2023-11-27 18:02:34,14.98331953,0.0002467,70.0011,224.6054,254.3676,105.7211,-9.8229e-05,-1.265e-05,0.0,0 STARLINK-5909,1 55938U 23037AA  23331.75178887 -.00001265  00000-0 -98229-4 0  9998,2 55938  70.0011 224.6054 0002467 254.3676 105.7211 14.98331953 39551,6950.187,96.107,573.766,570.337,0.0
55938.0,STARLINK-5909,PAYLOAD,2023-11-27 21:14:50,14.98334912,0.0002471,70.0008,224.27,231.7618,128.3319,-3.802e-05,-5.47e-06,0.0,0 STARLINK-5909,1 55938U 23037AA  23331.88530438 -.00000547  00000-0 -38020-4 0  9991,2 55938  70.0008 224.2700 0002471 231.7618 128.3319 14.98334912 39234,6950.178,96.107,573.76,570.325,0.0
55938.0,STARLINK-5909,PAYLOAD,2023-11-28 02:03:14,14.98338433,0.0002292,70.0014,223.7665,234.7385,125.356,6.8955e-06,-1.1e-07,0.0,0 STARLINK-5909,1 55938U 23037AA  23332.08558231 -.00000011  00000-0  68955-5 0  9991,2 55938  70.0014 223.7665 0002292 234.7385 125.3560 14.98338433 39608,6950.167,96.106,573.625,570.439,0.0
55938.0,STARLINK-5909,PAYLOAD,2023-11-28 19:40:43,14.98321594,0.0002475,70.0006,221.9129,245.4678,114.6223,0.00021126,2.428e-05,0.0,0 STARLINK-5909,1 55938U 23037AA  23332.81994488  .00002428  00000-0  21126-3 0  9990,2 55938  70.0006 221.9129 0002475 245.4678 114.6223 14.98321594 39710,6950.219,96.108,573.804,570.364,0.0
55938.0,STARLINK-5909,PAYLOAD,2023-11-28 22:52:59,14.98321455,0.0002469,70.0007,221.5762,245.4656,114.6246,0.0002026,2.325e-05,0.0,0 STARLINK-5909,1 55938U 23037AA  23332.95346573  .00002325  00000-0  20260-3 0  9995,2 55938  70.0007 221.5762 0002469 245.4656 114.6246 14.98321455 39394,6950.219,96.108,573.8,570.368,0.0
55938.0,STARLINK-5909,PAYLOAD,2023-11-29 03:41:23,14.98322312,0.0002533,70.0006,221.0713,248.1757,111.9133,0.00020597,2.365e-05,0.0,0 STARLINK-5909,1 55938U 23037AA  23333.15374602  .00002365  00000-0  20597-3 0  9999,2 55938  70.0006 221.0713 0002533 248.1757 111.9133 14.98322312 39420,6950.217,96.107,573.842,570.321,0.0
55938.0,STARLINK-5909,PAYLOAD,2023-11-29 19:42:44,14.98330846,0.0002846,70.0005,219.388,253.7839,106.3007,-8.9645e-06,-2e-06,0.0,0 STARLINK-5909,1 55938U 23037AA  23333.82134572 -.00000200  00000-0 -89645-5 0  9992,2 55938  70.0005 219.3880 0002846 253.7839 106.3007 14.98330846 39861,6950.19,96.107,574.033,570.077,0.0
55938.0,STARLINK-5909,PAYLOAD,2023-11-30 19:44:45,14.98326293,0.0002942,70.0004,216.8663,264.7551,95.3272,-8.0606e-05,-1.055e-05,0.0,0 STARLINK-5909,1 55938U 23037AA  23334.82274955 -.00001055  00000-0 -80606-4 0  9999,2 55938  70.0004 216.8663 0002942 264.7551  95.3272 14.98326293 40012,6950.204,96.107,574.114,570.025,0.0
55938.0,STARLINK-5909,PAYLOAD,2023-12-01 19:46:45,14.98344993,0.0002526,69.9997,214.3392,253.6539,106.4343,0.0001514,1.715e-05,0.0,0 STARLINK-5909,1 55938U 23037AA  23335.82413341  .00001715  00000-0  15140-3 0  9995,2 55938  69.9997 214.3392 0002526 253.6539 106.4343 14.98344993 40169,6950.147,96.106,573.767,570.256,0.0
55938.0,STARLINK-5909,PAYLOAD,2023-12-02 02:11:16,14.98349463,0.0002566,69.9998,213.6674,255.3842,104.7033,0.00020094,2.307e-05,0.0,0 STARLINK-5909,1 55938U 23037AA  23336.09116712  .00002307  00000-0  20094-3 0  9999,2 55938  69.9998 213.6674 0002566 255.3842 104.7033 14.98349463 39864,6950.133,96.106,573.781,570.214,0.0
55938.0,STARLINK-5909,PAYLOAD,2023-12-02 19:48:45,14.98381656,0.0002235,70.002,211.823,220.3968,139.7026,-0.0007356,-8.87e-05,0.0,0 STARLINK-5909,1 55938U 23037AA  23336.82553153 -.00008870  00000-0 -73560-3 0  9993,2 55938  70.0020 211.8230 0002235 220.3968 139.7026 14.98381656 40317,6950.033,96.104,573.451,570.345,0.0
55938.0,STARLINK-5909,PAYLOAD,2023-12-03 02:13:19,14.98324799,0.0002785,69.9991,211.1408,274.2058,85.8782,0.00012613,1.412e-05,0.0,0 STARLINK-5909,1 55938U 23037AA  23337.09258186  .00001412  00000-0  12613-3 0  9996,2 55938  69.9991 211.1408 0002785 274.2058  85.8782 14.98324799 40358,6950.209,96.107,574.01,570.138,0.0
55938.0,STARLINK-5909,PAYLOAD,2023-12-04 00:39:12,14.98326248,0.0002476,70.0,208.7849,271.4147,88.6728,-0.00025625,-3.149e-05,0.0,0 STARLINK-5909,1 55938U 23037AA  23338.02723355 -.00003149  00000-0 -25625-3 0  9993,2 55938  70.0000 208.7849 0002476 271.4147  88.6728 14.98326248 40495,6950.204,96.107,573.79,570.349,0.0
55938.0,STARLINK-5909,PAYLOAD,2023-12-04 15:04:25,14.98322961,0.0002864,69.9982,207.2686,270.428,89.6551,-2.4579e-05,-3.86e-06,0.0,0 STARLINK-5909,1 55938U 23037AA  23338.62806933 -.00000386  00000-0 -24579-4 0  9991,2 55938  69.9982 207.2686 0002864 270.4280  89.6551 14.98322961 40248,6950.215,96.107,574.07,570.089,0.0
55938.0,STARLINK-5909,PAYLOAD,2023-12-05 02:17:21,14.9832843,0.0002722,69.9985,206.0908,266.766,93.3188,4.1746e-05,4.05e-06,0.0,0 STARLINK-5909,1 55938U 23037AA  23339.09538519  .00000405  00000-0  41746-4 0  9990,2 55938  69.9985 206.0908 0002722 266.7660  93.3188 14.98328430 40658,6950.198,96.107,573.955,570.171,0.0
55938.0,STARLINK-5909,PAYLOAD,2023-12-06 02:19:21,14.98333003,0.0002897,69.998,203.5656,270.5142,89.5685,0.00016895,1.924e-05,0.0,0 STARLINK-5909,1 55938U 23037AA  23340.09677856  .00001924  00000-0  16895-3 0  9993,2 55938  69.9980 203.5656 0002897 270.5142  89.5685 14.98333003 40804,6950.184,96.107,574.062,570.035,0.0
55938.0,STARLINK-5909,PAYLOAD,2023-12-07 00:45:12,14.98357728,0.0003085,69.9977,201.2095,268.9652,91.1154,0.00021197,2.439e-05,0.0,0 STARLINK-5909,1 55938U 23037AA  23341.03139034  .00002439  00000-0  21197-3 0  9992,2 55938  69.9977 201.2095 0003085 268.9652  91.1154 14.98357728 40944,6950.107,96.105,574.116,569.828,0.0
55938.0,STARLINK-5909,PAYLOAD,2023-12-08 00:47:15,14.98336603,0.0003016,69.9984,198.6864,270.5262,89.5551,-0.00026262,-3.226e-05,0.0,0 STARLINK-5909,1 55938U 23037AA  23342.03281302 -.00003226  00000-0 -26262-3 0  9994,2 55938  69.9984 198.6864 0003016 270.5262  89.5551 14.98336603 41093,6950.172,96.107,574.134,569.941,0.0
55938.0,STARLINK-5909,PAYLOAD,2023-12-08 13:36:19,14.98333599,0.0002945,69.9985,197.3383,270.1073,89.9748,-0.00026587,-3.264e-05,0.0,0 STARLINK-5909,1 55938U 23037AA  23342.56689303 -.00003264  00000-0 -26587-3 0  9997,2 55938  69.9985 197.3383 0002945 270.1073  89.9748 14.98333599 40836,6950.182,96.107,574.094,570.0,0.0
55938.0,STARLINK-5909,PAYLOAD,2023-12-09 00:49:16,14.98331327,0.0002943,69.9984,196.1599,270.5922,89.49,-0.00024759,-3.046e-05,0.0,0 STARLINK-5909,1 55938U 23037AA  23343.03421356 -.00003046  00000-0 -24759-3 0  9999,2 55938  69.9984 196.1599 0002943 270.5922  89.4900 14.98331327 41244,6950.189,96.107,574.099,570.008,0.0
55938.0,STARLINK-5909,PAYLOAD,2023-12-10 20:04:54,14.9832536,0.0003361,69.9974,191.6118,273.297,86.7804,5.4168e-05,5.53e-06,0.0,0 STARLINK-5909,1 55938U 23037AA  23344.83673672  .00000553  00000-0  54168-4 0  9994,2 55938  69.9974 191.6118 0003361 273.2970  86.7804 14.98325360 41511,6950.207,96.107,574.408,569.736,0.0
55938.0,STARLINK-5909,PAYLOAD,2023-12-10 21:41:02,14.98325991,0.0003252,69.9976,191.4438,270.4938,89.5848,6.7343e-05,7.1e-06,0.0,0 STARLINK-5909,1 55938U 23037AA  23344.90349599  .00000710  00000-0  67343-4 0  9994,2 55938  69.9976 191.4438 0003252 270.4938  89.5848 14.98325991 41180,6950.205,96.107,574.33,569.81,0.0
55938.0,STARLINK-5909,PAYLOAD,2023-12-10 23:17:10,14.98326674,0.0003172,69.998,191.2766,268.5463,91.5332,7.9339e-05,8.54e-06,0.0,0 STARLINK-5909,1 55938U 23037AA  23344.97025530  .00000854  00000-0  79339-4 0  9994,2 55938  69.9980 191.2766 0003172 268.5463  91.5332 14.98326674 41190,6950.203,96.107,574.273,569.864,0.0
55938.0,STARLINK-5909,PAYLOAD,2023-12-11 20:06:54,14.98329954,0.0002914,69.9986,189.0893,261.8474,98.2355,1.6642e-05,1.06e-06,0.0,0 STARLINK-5909,1 55938U 23037AA  23345.83813636  .00000106  00000-0  16642-4 0  9990,2 55938  69.9986 189.0893 0002914 261.8474  98.2355 14.98329954 41668,6950.193,96.107,574.083,570.033,0.0
55938.0,STARLINK-5909,PAYLOAD,2023-12-11 21:43:03,14.98329534,0.000293,69.9986,188.921,262.3856,97.697,9.5196e-06,2.1e-07,0.0,0 STARLINK-5909,1 55938U 23037AA  23345.90489687  .00000021  00000-0  95196-5 0  9991,2 55938  69.9986 188.9210 0002930 262.3856  97.6970 14.98329534 41331,6950.194,96.107,574.096,570.023,0.0
55938.0,STARLINK-5909,PAYLOAD,2023-12-11 23:19:11,14.98329723,0.0002936,69.9986,188.7527,262.8055,97.277,1.0495e-05,3.2e-07,0.0,0 STARLINK-5909,1 55938U 23037AA  23345.97165675  .00000032  00000-0  10495-4 0  9996,2 55938  69.9986 188.7527 0002936 262.8055  97.2770 14.98329723 41347,6950.194,96.107,574.099,570.018,0.0
55938.0,STARLINK-5909,PAYLOAD,2023-12-12 20:08:55,14.98330687,0.0002931,69.9987,186.5645,262.5506,97.532,1.7025e-05,1.1e-06,0.0,0 STARLINK-5909,1 55938U 23037AA  23346.83953541  .00000110  00000-0  17025-4 0  9992,2 55938  69.9987 186.5645 0002931 262.5506  97.5320 14.98330687 41815,6950.191,96.107,574.093,570.019,0.0
55938.0,STARLINK-5909,PAYLOAD,2023-12-12 21:45:03,14.98330128,0.0002953,69.9986,186.3961,263.5771,96.5052,9.1441e-06,1.6e-07,0.0,0 STARLINK-5909,1 55938U 23037AA  23346.90629601  .00000016  00000-0  91441-5 0  9997,2 55938  69.9986 186.3961 0002953 263.5771  96.5052 14.98330128 41486,6950.192,96.107,574.11,570.005,0.0
55938.0,STARLINK-5909,PAYLOAD,2023-12-13 13:46:24,14.98332445,0.0002975,69.9986,184.7129,265.4396,94.6423,2.0686e-05,1.54e-06,0.0,0 STARLINK-5909,1 55938U 23037AA  23347.57389339  .00000154  00000-0  20686-4 0  9997,2 55938  69.9986 184.7129 0002975 265.4396  94.6423 14.98332445 41588,6950.185,96.107,574.118,569.983,0.0
